XRISM                   
1 57800U 23137A   24105.31305321  .00005924  00000+0  45526-3 0  9990
2 57800  31.0040  58.9488 0010244 295.0828  64.8744 15.00258768 33008
